{
    "links": {
        "self": "http://www.neowsapp.com/rest/v1/neo/3159889?api_key=iIulBulltgU6a56xZRHN4H3l9WmuAYTsLGpBGhQ2"
    },
    "id": "3159889",
    "neo_reference_id": "3159889",
    "name": "(2003 RB5)",
    "designation": "2003 RB5",
    "nasa_jpl_url": "http://ssd.jpl.nasa.gov/sbdb.cgi?sstr=3159889",
    "absolute_magnitude_h": 21.2,
    "estimated_diameter": {
        "kilometers": {
            "estimated_diameter_min": 0.1529519353,
            "estimated_diameter_max": 0.3420109247
        },
        "meters": {
            "estimated_diameter_min": 152.9519353442,
            "estimated_diameter_max": 342.0109247198
        },
        "miles": {
            "estimated_diameter_min": 0.095039897,
            "estimated_diameter_max": 0.2125156703
        },
        "feet": {
            "estimated_diameter_min": 501.8108275547,
            "estimated_diameter_max": 1122.0831222578
        }
    },
    "is_potentially_hazardous_asteroid": true,
    "close_approach_data": [
        {
            "close_approach_date": "2003-09-04",
            "close_approach_date_full": "2003-Sep-04 14:03",
            "epoch_date_close_approach": 1062684180000,
            "relative_velocity": {
                "kilometers_per_second": "25.5275734292",
                "kilometers_per_hour": "91899.2643452914",
                "miles_per_hour": "57102.629003884"
            },
            "miss_distance": {
                "astronomical": "0.0280163072",
                "lunar": "10.8983435008",
                "kilometers": "4191179.882385664",
                "miles": "2604278.4169196032"
            },
            "orbiting_body": "Earth"
        }
    ],
    "orbital_data": {
        "orbit_id": "17",
        "orbit_determination_date": "2017-04-06 09:13:53",
        "first_observation_date": "2003-09-04",
        "last_observation_date": "2003-09-19",
        "data_arc_in_days": 15,
        "observations_used": 251,
        "orbit_uncertainty": "8",
        "minimum_orbit_intersection": ".0244232",
        "jupiter_tisserand_invariant": "3.516",
        "epoch_osculation": "2452889.5",
        "eccentricity": ".4716685992131386",
        "semi_major_axis": "1.884560183204721",
        "inclination": "44.6238996841163",
        "ascending_node_longitude": "341.9320164875822",
        "orbital_period": "944.9600398382587",
        "perihelion_distance": ".9956723214596945",
        "perihelion_argument": "27.58991573273283",
        "aphelion_distance": "2.773448044949748",
        "perihelion_time": "2452910.045898957073",
        "mean_anomaly": "352.1726598874887",
        "mean_motion": ".3809684905423285",
        "equinox": "J2000",
        "orbit_class": {
            "orbit_class_type": "APO",
            "orbit_class_description": "Near-Earth asteroid orbits which cross the Earth’s orbit similar to that of 1862 Apollo",
            "orbit_class_range": "a (semi-major axis) > 1.0 AU; q (perihelion) < 1.017 AU"
        }
    },
    "is_sentry_object": false
}